              TDR Cartesian                         TDR Cartesian  
    -----------------------------------       --------------------------------
     X    =      -13321331.64                 X    =        -4060341.88
     Y    =       11942603.47  feet           Y    =         3640105.54  meter
     Z    =       13203439.38                 Z    =         4024408.32
     XDOT =     -19193.595662                 XDOT =       -5850.207958
     YDOT =      -7112.870622  feet/sec       YDOT =       -2168.002966  meter/sec
     ZDOT =     -12866.540804                 ZDOT =       -3921.721637
  
  
    The mean element set is posted at the UTC for which position is
    just north of the next ascending node relative to the above
    vector time
 
 
    TWO LINE MEAN ELEMENT SET
  
    ISS
    1 25544U 98067A   15289.54099533  .00016717  00000-0  10270-3 0  9044
    2 25544  51.6432 198.3718 0006742  41.4683 318.6980 15.54325607  6925
  
  
    Satellite: ISS
    Catalog Number: 25544
    Epoch time:      15289.54099533   =   yrday.fracday
    Element set:     904
    Inclination:       51.6432  deg
    RA of node:       198.3718  deg
    Eccentricity:     .0006742     
    Arg of perigee:    41.4683  deg
    Mean anomaly:     318.6980  deg
    Mean motion:   15.54325607  rev/day
    Decay rate:    1.67170E-04  rev/day^2
    Epoch rev:             692
    Checksum:              333
 
 
    Coasting Arc #6 (Orbit 706)
    ---------------------------------------
 
    Vector Time (GMT): 2015/290/12:00:00.000
    Vector Time (MET): N/A
    Weight (LBS)     : 907028.0
 
              M50 Cartesian                         M50 Keplerian  
    -----------------------------------       --------------------------------
     X    =       -6203185.07                 A    =         6785617.88  meter
     Y    =         773101.16  meter          E    =           .0011591
     Z    =       -2635774.70                 I    =           51.56868
     XDOT =      -2813.370314                 Wp   =           49.47051
     YDOT =      -4860.633107  meter/sec      RA   =          192.44208  deg
     ZDOT =       5217.934500                 TA   =          280.79573
                                              MA   =          280.92618
                                              Ha   =            222.717  n.mi
                                              Hp   =            212.337
 
              M50 Cartesian                         J2K Cartesian  
    -----------------------------------       --------------------------------
     X    =      -20351657.06                 X    =        -6198565.15
     Y    =        2536421.14  feet           Y    =          703758.71  meter
     Z    =       -8647554.80                 Z    =        -2665898.06
     XDOT =      -9230.217566                 XDOT =       -2784.155760
     YDOT =     -15946.959014  feet/sec       YDOT =       -4891.930371  meter/sec
     ZDOT =      17119.207676                 ZDOT =        5204.338683
 
              TDR Cartesian                         TDR Cartesian  
    -----------------------------------       --------------------------------
     X    =       17354707.82                 X    =         5289714.94
     Y    =      -10824552.49  feet           Y    =        -3299323.60  meter
     Z    =       -8777628.44                 Z    =        -2675421.15
     XDOT =      14382.912998                 XDOT =        4383.911882
     YDOT =       9283.569317  feet/sec       YDOT =        2829.631928  meter/sec
     ZDOT =      17061.332515                 ZDOT =        5200.294151
  
  
    The mean element set is posted at the UTC for which position is
    just north of the next ascending node relative to the above
    vector time
 
 
    TWO LINE MEAN ELEMENT SET
  
    ISS
    1 25544U 98067A   15290.50539480  .00016717  00000-0  10270-3 0  9053
    2 25544  51.6436 193.5623 0006707  44.5579 315.6112 15.54358950  7078
  
  
    Satellite: ISS
    Catalog Number: 25544
    Epoch time:      15290.50539480   =   yrday.fracday
    Element set:     905
    Inclination:       51.6436  deg
    RA of node:       193.5623  deg
    Eccentricity:     .0006707     
    Arg of perigee:    44.5579  deg
    Mean anomaly:     315.6112  deg
    Mean motion:   15.54358950  rev/day
    Decay rate:    1.67170E-04  rev/day^2
    Epoch rev:             707
    Checksum:              315
 
 
    Coasting Arc #7 (Orbit 722)
    ---------------------------------------
 
    Vector Time (GMT): 2015/291/12:00:00.000
    Vector Time (MET): N/A
    Weight (LBS)     : 907028.0
 
              M50 Cartesian                         M50 Keplerian  
    -----------------------------------       --------------------------------
     X    =        6719386.67                 A    =         6788311.60  meter
     Y    =         141750.63  meter          E    =           .0016464
     Z    =         924156.78                 I    =           51.60850
     XDOT =        723.823421                 Wp   =          101.91810
     YDOT =       4822.924138  meter/sec      RA   =          187.46343  deg
     ZDOT =      -5916.643675                 TA   =           68.07295
                                              MA   =           67.89802
                                              Ha   =            222.842  n.mi
                                              Hp   =            212.308
 
              M50 Cartesian                         J2K Cartesian  
    -----------------------------------       --------------------------------
     X    =       22045231.85                 X    =         6712812.88
     Y    =         465061.11  feet           Y    =          216854.53  meter
     Z    =        3032010.44                 Z    =          956782.91
     XDOT =       2374.748757                 XDOT =         698.579907
     YDOT =      15823.241922  feet/sec       YDOT =        4830.876921  meter/sec
     ZDOT =     -19411.560612                 ZDOT =       -5913.189008
 
              TDR Cartesian                         TDR Cartesian  
    -----------------------------------       --------------------------------
     X    =      -20029671.37                 X    =        -6105043.83
     Y    =        9173195.64  feet           Y    =         2795990.03  meter
     Z    =        3172753.22                 Z    =          967055.18
     XDOT =      -8470.676784                 XDOT =       -2581.862284
     YDOT =     -11693.527885  feet/sec       YDOT =       -3564.187299  meter/sec
     ZDOT =     -19397.426177                 ZDOT =       -5912.335499
  
  
    The mean element set is posted at the UTC for which position is
    just north of the next ascending node relative to the above
    vector time
 
 
    TWO LINE MEAN ELEMENT SET
  
    ISS
    1 25544U 98067A   15291.53407731  .00016717  00000-0  10270-3 0  9061
    2 25544  51.6434 188.4321 0006656  48.7733 311.3993 15.54342485  7239
  
  
    Satellite: ISS
    Catalog Number: 25544
    Epoch time:      15291.53407731   =   yrday.fracday
    Element set:     906
    Inclination:       51.6434  deg
    RA of node:       188.4321  deg
    Eccentricity:     .0006656     
    Arg of perigee:    48.7733  deg
    Mean anomaly:     311.3993  deg
    Mean motion:   15.54342485  rev/day
    Decay rate:    1.67170E-04  rev/day^2
    Epoch rev:             723
    Checksum:              314
 
 
    Coasting Arc #8 (Orbit 738)
    ---------------------------------------
 
    Vector Time (GMT): 2015/292/12:00:00.000
    Vector Time (MET): N/A
    Weight (LBS)     : 907028.0
 
              M50 Cartesian                         M50 Keplerian  
    -----------------------------------       --------------------------------
     X    =       -6657151.02                 A    =         6788347.86  meter
     Y    =        -958218.97  meter          E    =           .0020076
     Z    =         844076.18                 I    =           51.64064
     XDOT =       1432.277670                 Wp   =           53.05659
     YDOT =      -4643.014420  meter/sec      RA   =          182.49053  deg
     ZDOT =       5939.667872                 TA   =          316.08079
                                              MA   =          316.24019
                                              Ha   =            222.843  n.mi
                                              Hp   =            212.252
 
              M50 Cartesian                         J2K Cartesian  
    -----------------------------------       --------------------------------
     X    =      -21841046.66                 X    =        -6650041.48
     Y    =       -3143763.02  feet           Y    =        -1032623.82  meter
     Z    =        2769278.80                 Z    =          811753.83
     XDOT =       4699.073722                 XDOT =        1455.237387
     YDOT =     -15232.986942  feet/sec       YDOT =       -4626.869046  meter/sec
     ZDOT =      19487.099317                 ZDOT =        5946.681733
 
              TDR Cartesian                         TDR Cartesian  
    -----------------------------------       --------------------------------
     X    =       20927402.03                 X    =         6378672.14
     Y    =       -7050576.89  feet           Y    =        -2149015.84  meter
     Z    =        2629958.22                 Z    =          801611.27
     XDOT =       2270.940749                 XDOT =         692.182740
     YDOT =      14131.506311  feet/sec       YDOT =        4307.283124  meter/sec
     ZDOT =      19518.106817                 ZDOT =        5949.118958
  
  
    The mean element set is posted at the UTC for which position is
    just north of the next ascending node relative to the above
    vector time
 
 
    TWO LINE MEAN ELEMENT SET
  
    ISS
    1 25544U 98067A   15292.56274727  .00016717  00000-0  10270-3 0  9073
    2 25544  51.6436 183.3018 0006731  50.7941 309.3809 15.54374920  7395
  
